{
    "creator": "Satellites plugin version 0.12.0",
    "hintColor": [
        0.4,
        0.4,
        0.4
    ],
    "satellites": {
        "46394": {
            "comms": [
            ],
            "groups": [
                "debris"
            ],
            "lastUpdated": "2020-09-16T19:17:49",
            "name": "CZ-2F DEB",
            "orbitVisible": false,
            "tle1": "1 46394U 20063F   20259.79758680  .00101015  00000-0  10670-2 0  9999",
            "tle2": "2 46394  50.4609   7.2254 0110820 234.6206 124.4554 15.55987583  1650",
            "visible": true
        },
        "46395": {
            "comms": [
            ],
            "groups": [
            ],
            "lastUpdated": "2020-09-16T19:17:49",
            "name": "2020-063G",
            "orbitVisible": false,
            "tle1": "1 46395U 20063G   20259.70140658  .00008707  00000-0  56456-4 0  9999",
            "tle2": "2 46395  50.2068   5.7181 0011936 337.9606  22.0859 15.76862514  1806",
            "visible": true
        },
        "46396": {
            "comms": [
            ],
            "groups": [
            ],
            "lastUpdated": "2020-09-16T19:17:49",
            "name": "GAOFEN 11-2",
            "orbitVisible": false,
            "tle1": "1 46396U 20064A   20259.93367979  .00071182  29216-5  34261-3 0  9994",
            "tle2": "2 46396  97.3301  12.0258 0326341 140.5795 357.9584 15.33728318  1330",
            "visible": true
        },
        "46397": {
            "comms": [
            ],
            "groups": [
            ],
            "lastUpdated": "2020-09-16T19:17:49",
            "name": "CZ-4B R/B",
            "orbitVisible": false,
            "tle1": "1 46397U 20064B   20259.85957442 -.00000623  19702-5  00000+0 0  9998",
            "tle2": "2 46397  97.2498  12.2984 0192742 119.0035   2.7321 15.69640314  1353",
            "visible": true
        },
        "46454": {
            "comms": [
            ],
            "groups": [
            ],
            "lastUpdated": "2020-09-16T19:17:49",
            "name": "JILIN-01 GAOFEN 3B",
            "orbitVisible": false,
            "tle1": "1 46454U 20065A   20260.17481711  .00010723  00000-0  68240-3 0  9992",
            "tle2": "2 46454  97.5384 315.8183 0011722 279.2480 156.7459 15.08908443   172",
            "visible": true
        },
        "46455": {
            "comms": [
            ],
            "groups": [
            ],
            "lastUpdated": "2020-09-16T19:17:49",
            "name": "JILIN-01 GAOFEN 3C",
            "orbitVisible": false,
            "tle1": "1 46455U 20065B   20260.04412653 -.00000541  00000-0 -29998-4 0  9995",
            "tle2": "2 46455  97.5326 315.6894 0011165 289.4803 158.1918 15.09227732   159",
            "visible": true
        },
        "46456": {
            "comms": [
            ],
            "groups": [
            ],
            "lastUpdated": "2020-09-16T19:17:49",
            "name": "JILIN-01 GAOFEN 3D",
            "orbitVisible": false,
            "tle1": "1 46456U 20065C   20260.04535632 -.00002962  00000-0 -18209-3 0  9990",
            "tle2": "2 46456  97.5411 315.6918 0011266 289.9166 164.5036 15.09245144   150",
            "visible": true
        },
        "46457": {
            "comms": [
            ],
            "groups": [
            ],
            "lastUpdated": "2020-09-16T19:17:49",
            "name": "JILIN-01 GAOFEN 3E",
            "orbitVisible": false,
            "tle1": "1 46457U 20065D   20259.84974418 -.00012787  00000-0 -79979-3 0  9993",
            "tle2": "2 46457  97.5379 315.5011 0010932 292.7236 179.6359 15.09272352   129",
            "visible": true
        },
        "46458": {
            "comms": [
            ],
            "groups": [
            ],
            "lastUpdated": "2020-09-16T19:17:49",
            "name": "JILIN-01 GAOFEN 3F",
            "orbitVisible": false,
            "tle1": "1 46458U 20065E   20260.17474806  .00011938  00000-0  74776-3 0  9993",
            "tle2": "2 46458  97.5312 315.8188 0012128 291.2652 146.5315 15.09458497   176",
            "visible": true
        },
        "46459": {
            "comms": [
            ],
            "groups": [
            ],
            "lastUpdated": "2020-09-16T19:17:49",
            "name": "JILIN-01 GAOFEN 3G",
            "orbitVisible": false,
            "tle1": "1 46459U 20065F   20260.04503257  .00005984  00000-0  37699-3 0  9990",
            "tle2": "2 46459  97.5441 315.6931 0012248 291.7087 161.7158 15.09466689   158",
            "visible": true
        },
        "46460": {
            "comms": [
            ],
            "groups": [
            ],
            "lastUpdated": "2020-09-16T19:17:49",
            "name": "JILIN-01 GAOFEN 3H",
            "orbitVisible": false,
            "tle1": "1 46460U 20065G   20259.84962446 -.00009263  00000-0 -57447-3 0  9996",
            "tle2": "2 46460  97.5322 315.4980 0012854 292.1803 180.1199 15.09476539   126",
            "visible": true
        },
        "46461": {
            "comms": [
            ],
            "groups": [
            ],
            "lastUpdated": "2020-09-16T19:17:49",
            "name": "JILIN-01 GAOFEN 3I",
            "orbitVisible": false,
            "tle1": "1 46461U 20065H   20259.84962438 -.00014408  00000-0 -89605-3 0  9996",
            "tle2": "2 46461  97.5411 315.4995 0013017 292.5290 179.8030 15.09485080   128",
            "visible": true
        },
        "46462": {
            "comms": [
            ],
            "groups": [
            ],
            "lastUpdated": "2020-09-16T19:17:49",
            "name": "JILIN-01 GAOFEN 3J",
            "orbitVisible": false,
            "tle1": "1 46462U 20065J   20259.84956111 -.00009435  00000-0 -58303-3 0  9993",
            "tle2": "2 46462  97.5355 315.4985 0013518 293.1912 179.1249 15.09604901   129",
            "visible": true
        },
        "46463": {
            "comms": [
            ],
            "groups": [
            ],
            "lastUpdated": "2020-09-16T19:17:49",
            "name": "CZ-11 R/B",
            "orbitVisible": false,
            "tle1": "1 46463U 20065K   20259.93755894  .00067917  33636-5  20491-3 0  9999",
            "tle2": "2 46463  97.4771 315.6295 0284994 313.9669  43.8394 15.49700585   144",
            "visible": true
        },
        "4793": {
            "comms": [
            ],
            "groups": [
                "weather",
                "non-operational",
                "scientific"
            ],
            "hintColor": [
                0.08,
                0.33,
                0.74
            ],
            "infoColor": [
                0.08,
                0.33,
                0.74
            ],
            "lastUpdated": "2020-09-16T19:17:49",
            "name": "NOAA 1",
            "orbitVisible": false,
            "rcs": 2.72,
            "status": 2,
            "stdMag": 8,
            "tle1": "1 04793U 70106A   20259.91828566 -.00000041  00000-0  22183-4 0  9996",
            "tle2": "2 04793 101.6490 326.4728 0032092 124.5153  49.0800 12.53995956277422",
            "visible": false
        },
        "4814": {
            "comms": [
            ],
            "groups": [
                "visual"
            ],
            "lastUpdated": "2020-09-16T19:17:49",
            "name": "SL-3 R/B",
            "orbitVisible": false,
            "rcs": 6.39,
            "stdMag": 3.5,
            "tle1": "1 04814U 70113B   20260.16483855  .00000922  00000-0  25580-4 0  9996",
            "tle2": "2 04814  81.1417  47.6836 0023571 320.6134  39.3389 15.35536599716507",
            "visible": false
        },
        "4882": {
            "comms": [
            ],
            "groups": [
            ],
            "lastUpdated": "2020-09-16T19:17:49",
            "name": "ATLAS CENTAUR R/B",
            "orbitVisible": false,
            "rcs": 15.6,
            "stdMag": 2.5,
            "tle1": "1 04882U 71006B   20259.63656913 -.00000056  00000-0 -78106-3 0  9991",
            "tle2": "2 04882  27.5321 215.1603 7175831  27.0606  63.9237  2.20677258396811",
            "visible": true
        },
        "4902": {
            "comms": [
            ],
            "groups": [
            ],
            "lastUpdated": "2020-09-16T19:17:49",
            "name": "NATO 2B",
            "orbitVisible": false,
            "rcs": 1.81,
            "tle1": "1 04902U 71009A   20259.62156510 -.00000104  00000-0  00000-0 0  9992",
            "tle2": "2 04902   6.4420 291.5706 0004129 158.2159  23.5550  1.00272670 97573",
            "visible": true
        },
        "5054": {
            "comms": [
            ],
            "groups": [
            ],
            "lastUpdated": "2020-09-16T19:17:49",
            "name": "TITAN 34B AGENA D R/B",
            "orbitVisible": false,
            "tle1": "1 05054U 71021B   20259.21292021  .00000050  00000-0  65853-4 0  9998",
            "tle2": "2 05054  63.5549 343.3284 7282611 271.8132  14.2551  2.19906549 10921",
            "visible": true
        },
        "5118": {
            "comms": [
            ],
            "groups": [
                "visual"
            ],
            "lastUpdated": "2020-09-16T19:17:49",
            "name": "SL-3 R/B",
            "orbitVisible": false,
            "rcs": 6.77,
            "stdMag": 3.5,
            "tle1": "1 05118U 71028B   20260.17551580 -.00000047  00000-0 -38727-5 0  9990",
            "tle2": "2 05118  81.2546 232.1170 0045625 259.0819 100.5274 15.14659045683832",
            "visible": false
        }
    },
    "shortName": "satellite orbital data",
    "version": "0.12.0"
}
